{"type": "FeatureCollection", "features": [ {"type": "Feature", "properties": {"norad_id": 31091, "name": "FENGYUN 1C DEB", "group": "fengyun-1c-debris", "lat": -13.298302055354442, "lon": -21.399814627506522, "alt_km": 924.2592800079228, "timestamp": "2025-12-26T05:31:12.787929+00:00", "meta": {"OBJECT_NAME": "FENGYUN 1C DEB", "OBJECT_ID": "1999-025BGM", "EPOCH": "2025-12-22T16:28:13.100736", "MEAN_MOTION": 13.54158753, "ECCENTRICITY": 0.02902586, "INCLINATION": 99.2259, "RA_OF_ASC_NODE": 333.0878, "ARG_OF_PERICENTER": 303.7803, "MEAN_ANOMALY": 53.5998, "EPHEMERIS_TYPE": 0, "CLASSIFICATION_TYPE": "U", "NORAD_CAT_ID": 31091, "ELEMENT_SET_NO": 999, "REV_AT_EPOCH": 61774, "BSTAR": 0.00060623551, "MEAN_MOTION_DOT": 4.96e-06, "MEAN_MOTION_DDOT": 0}, "tle": {"line1": "1 31091U 99025BGM 25356.68626274  .00000496  00000+0  60624-3 0  9990", "line2": "2 31091  99.2259 333.0878 0290258 303.7803  53.5998 13.54158753617740"}}, "geometry": {"type": "Point", "coordinates": [-21.399814627506522, -13.298302055354442]}}, {"type": "Feature", "properties": {"norad_id": 31092, "name": "FENGYUN 1C DEB", "group": "fengyun-1c-debris", "lat": -24.62332783728672, "lon": 120.21056367496786, "alt_km": 1236.9700346455065, "timestamp": "2025-12-26T05:31:12.787939+00:00", "meta": {"OBJECT_NAME": "FENGYUN 1C DEB", "OBJECT_ID": "1999-025BGN", "EPOCH": "2025-12-24T01:55:59.996928", "MEAN_MOTION": 13.46554727, "ECCENTRICITY": 0.0327048, "INCLINATION": 99.718, "RA_OF_ASC_NODE": 113.6183, "ARG_OF_PERICENTER": 108.8069, "MEAN_ANOMALY": 254.8834, "EPHEMERIS_TYPE": 0, "CLASSIFICATION_TYPE": "U", "NORAD_CAT_ID": 31092, "ELEMENT_SET_NO": 999, "REV_AT_EPOCH": 92034, "BSTAR": 0.0011496319, "MEAN_MOTION_DOT": 9.18e-06, "MEAN_MOTION_DDOT": 0}, "tle": {"line1": "1 31092U 99025BGN 25358.08055552  .00000918  00000+0  11496-2 0  9993", "line2": "2 31092  99.7180 113.6183 0327048 108.8069 254.8834 13.46554727920346"}}, "geometry": {"type": "Point", "coordinates": [120.21056367496786, -24.62332783728672]}}, {"type": "Feature", "properties": {"norad_id": 31093, "name": "FENGYUN 1C DEB", "group": "fengyun-1c-debris", "lat": -12.370153418129007, "lon": -160.0752635220812, "alt_km": 1110.2243394351735, "timestamp": "2025-12-26T05:31:12.787949+00:00", "meta": {"OBJECT_NAME": "FENGYUN 1C DEB", "OBJECT_ID": "1999-025BGP", "EPOCH": "2025-12-20T19:08:05.890560", "MEAN_MOTION": 13.80639482, "ECCENTRICITY": 0.02083586, "INCLINATION": 98.5945, "RA_OF_ASC_NODE": 193.0786, "ARG_OF_PERICENTER": 201.2976, "MEAN_ANOMALY": 157.9411, "EPHEMERIS_TYPE": 0, "CLASSIFICATION_TYPE": "U", "NORAD_CAT_ID": 31093, "ELEMENT_SET_NO": 999, "REV_AT_EPOCH": 94618, "BSTAR": 0.00028681115, "MEAN_MOTION_DOT": 3.16e-06, "MEAN_MOTION_DDOT": 0}, "tle": {"line1": "1 31093U 99025BGP 25354.79729040  .00000316  00000+0  28681-3 0  9995", "line2": "2 31093  98.5945 193.0786 0208358 201.2976 157.9411 13.80639482946185"}}, "geometry": {"type": "Point", "coordinates": [-160.0752635220812, -12.370153418129007]}}, {"type": "Feature", "properties": {"norad_id": 31094, "name": "FENGYUN 1C DEB", "group": "fengyun-1c-debris", "lat": 70.35563474670919, "lon": -158.192882099472, "alt_km": 843.56569936915, "timestamp": "2025-12-26T05:31:12.787959+00:00", "meta": {"OBJECT_NAME": "FENGYUN 1C DEB", "OBJECT_ID": "1999-025BGQ", "EPOCH": "2025-12-25T13:46:06.985344", "MEAN_MOTION": 14.02106243, "ECCENTRICITY": 0.0106527, "INCLINATION": 98.8564, "RA_OF_ASC_NODE": 227.0685, "ARG_OF_PERICENTER": 11.5055, "MEAN_ANOMALY": 348.851, "EPHEMERIS_TYPE": 0, "CLASSIFICATION_TYPE": "U", "NORAD_CAT_ID": 31094, "ELEMENT_SET_NO": 999, "REV_AT_EPOCH": 95799, "BSTAR": 0.0017442, "MEAN_MOTION_DOT": 2.758e-05, "MEAN_MOTION_DDOT": 0}, "tle": {"line1": "1 31094U 99025BGQ 25359.57369196  .00002758  00000+0  17442-2 0  9993", "line2": "2 31094  98.8564 227.0685 0106527  11.5055 348.8510 14.02106243957998"}}, "geometry": {"type": "Point", "coordinates": [-158.192882099472, 70.35563474670919]}}, {"type": "Feature", "properties": {"norad_id": 31095, "name": "FENGYUN 1C DEB", "group": "fengyun-1c-debris", "lat": -39.849045693902895, "lon": -47.226845306781236, "alt_km": 1041.9349677482305, "timestamp": "2025-12-26T05:31:12.787969+00:00", "meta": {"OBJECT_NAME": "FENGYUN 1C DEB", "OBJECT_ID": "1999-025BGR", "EPOCH": "2025-12-24T02:48:44.654400", "MEAN_MOTION": 13.06670618, "ECCENTRICITY": 0.05001499, "INCLINATION": 98.5625, "RA_OF_ASC_NODE": 138.3042, "ARG_OF_PERICENTER": 164.6493, "MEAN_ANOMALY": 197.044, "EPHEMERIS_TYPE": 0, "CLASSIFICATION_TYPE": "U", "NORAD_CAT_ID": 31095, "ELEMENT_SET_NO": 999, "REV_AT_EPOCH": 89596, "BSTAR": -0.00036805939, "MEAN_MOTION_DOT": -2.53e-06, "MEAN_MOTION_DDOT": 0}, "tle": {"line1": "1 31095U 99025BGR 25358.11718350 -.00000253  00000+0 -36806-3 0  9999", "line2": "2 31095  98.5625 138.3042 0500149 164.6493 197.0440 13.06670618895968"}}, "geometry": {"type": "Point", "coordinates": [-47.226845306781236, -39.849045693902895]}}, {"type": "Feature", "properties": {"norad_id": 31097, "name": "FENGYUN 1C DEB", "group": "fengyun-1c-debris", "lat": 41.49779784903448, "lon": -48.43733960171441, "alt_km": 732.0520079611761, "timestamp": "2025-12-26T05:31:12.787979+00:00", "meta": {"OBJECT_NAME": "FENGYUN 1C DEB", "OBJECT_ID": "1999-025BGT", "EPOCH": "2025-12-25T07:27:02.384064", "MEAN_MOTION": 14.47224883, "ECCENTRICITY": 0.0015883, "INCLINATION": 98.8596, "RA_OF_ASC_NODE": 122.6694, "ARG_OF_PERICENTER": 234.49, "MEAN_ANOMALY": 155.2771, "EPHEMERIS_TYPE": 0, "CLASSIFICATION_TYPE": "U", "NORAD_CAT_ID": 31097, "ELEMENT_SET_NO": 999, "REV_AT_EPOCH": 97220, "BSTAR": 0.0029972, "MEAN_MOTION_DOT": 0.00010937, "MEAN_MOTION_DDOT": 0}, "tle": {"line1": "1 31097U 99025BGT 25359.31044426  .00010937  00000+0  29972-2 0  9993", "line2": "2 31097  98.8596 122.6694 0015883 234.4900 155.2771 14.47224883972205"}}, "geometry": {"type": "Point", "coordinates": [-48.43733960171441, 41.49779784903448]}}, {"type": "Feature", "properties": {"norad_id": 31098, "name": "FENGYUN 1C DEB", "group": "fengyun-1c-debris", "lat": -46.54057900471369, "lon": -70.55964105652394, "alt_km": 715.7595540906023, "timestamp": "2025-12-26T05:31:12.787989+00:00", "meta": {"OBJECT_NAME": "FENGYUN 1C DEB", "OBJECT_ID": "1999-025BGU", "EPOCH": "2025-12-25T18:33:08.788896", "MEAN_MOTION": 14.51827107, "ECCENTRICITY": 0.00154633, "INCLINATION": 98.8696, "RA_OF_ASC_NODE": 118.443, "ARG_OF_PERICENTER": 214.3078, "MEAN_ANOMALY": 145.7118, "EPHEMERIS_TYPE": 0, "CLASSIFICATION_TYPE": "U", "NORAD_CAT_ID": 31098, "ELEMENT_SET_NO": 999, "REV_AT_EPOCH": 97146, "BSTAR": 0.003334893, "MEAN_MOTION_DOT": 0.00013419, "MEAN_MOTION_DDOT": 0}, "tle": {"line1": "1 31098U 99025BGU 25359.77301839  .00013419  00000+0  33349-2 0  9999", "line2": "2 31098  98.8696 118.4430 0015463 214.3078 145.7118 14.51827107971464"}}, "geometry": {"type": "Point", "coordinates": [-70.55964105652394, -46.54057900471369]}}, {"type": "Feature", "properties": {"norad_id": 31099, "name": "FENGYUN 1C DEB", "group": "fengyun-1c-debris", "lat": -17.157955373810925, "lon": -104.19107446052317, "alt_km": 811.7407576732576, "timestamp": "2025-12-26T05:31:12.787999+00:00", "meta": {"OBJECT_NAME": "FENGYUN 1C DEB", "OBJECT_ID": "1999-025BGV", "EPOCH": "2025-12-25T16:17:21.025248", "MEAN_MOTION": 14.27940091, "ECCENTRICITY": 0.00624416, "INCLINATION": 98.9378, "RA_OF_ASC_NODE": 252.46, "ARG_OF_PERICENTER": 243.3659, "MEAN_ANOMALY": 146.2974, "EPHEMERIS_TYPE": 0, "CLASSIFICATION_TYPE": "U", "NORAD_CAT_ID": 31099, "ELEMENT_SET_NO": 999, "REV_AT_EPOCH": 97656, "BSTAR": 0.00028178229, "MEAN_MOTION_DOT": 6.66e-06, "MEAN_MOTION_DDOT": 0}, "tle": {"line1": "1 31099U 99025BGV 25359.67871557  .00000666  00000+0  28178-3 0  9993", "line2": "2 31099  98.9378 252.4600 0062441 243.3659 146.2974 14.27940091976569"}}, "geometry": {"type": "Point", "coordinates": [-104.19107446052317, -17.157955373810925]}}, {"type": "Feature", "properties": {"norad_id": 31146, "name": "FENGYUN 1C DEB", "group": "fengyun-1c-debris", "lat": -13.553275153330764, "lon": 109.27316881989042, "alt_km": 737.8572770991459, "timestamp": "2025-12-26T05:31:12.788009+00:00", "meta": {"OBJECT_NAME": "FENGYUN 1C DEB", "OBJECT_ID": "1999-025BGY", "EPOCH": "2025-12-25T18:32:37.891392", "MEAN_MOTION": 14.27730951, "ECCENTRICITY": 0.02131565, "INCLINATION": 99.0429, "RA_OF_ASC_NODE": 290.9998, "ARG_OF_PERICENTER": 129.3599, "MEAN_ANOMALY": 232.6681, "EPHEMERIS_TYPE": 0, "CLASSIFICATION_TYPE": "U", "NORAD_CAT_ID": 31146, "ELEMENT_SET_NO": 999, "REV_AT_EPOCH": 96951, "BSTAR": 0.00034326931, "MEAN_MOTION_DOT": 1.028e-05, "MEAN_MOTION_DDOT": 0}, "tle": {"line1": "1 31146U 99025BGY 25359.77266078  .00001028  00000+0  34327-3 0  9999", "line2": "2 31146  99.0429 290.9998 0213156 129.3599 232.6681 14.27730951969519"}}, "geometry": {"type": "Point", "coordinates": [109.27316881989042, -13.553275153330764]}}, {"type": "Feature", "properties": {"norad_id": 31148, "name": "FENGYUN 1C DEB", "group": "fengyun-1c-debris", "lat": 40.40510704959323, "lon": -121.28324424354882, "alt_km": 659.7212515315159, "timestamp": "2025-12-26T05:31:12.788019+00:00", "meta": {"OBJECT_NAME": "FENGYUN 1C DEB", "OBJECT_ID": "1999-025BHA", "EPOCH": "2025-12-24T03:25:37.277184", "MEAN_MOTION": 14.43428265, "ECCENTRICITY": 0.01363719, "INCLINATION": 98.865, "RA_OF_ASC_NODE": 244.1788, "ARG_OF_PERICENTER": 16.9789, "MEAN_ANOMALY": 343.5897, "EPHEMERIS_TYPE": 0, "CLASSIFICATION_TYPE": "U", "NORAD_CAT_ID": 31148, "ELEMENT_SET_NO": 999, "REV_AT_EPOCH": 97695, "BSTAR": 0.0010306136, "MEAN_MOTION_DOT": 3.846e-05, "MEAN_MOTION_DDOT": 0}, "tle": {"line1": "1 31148U 99025BHA 25358.14279256  .00003846  00000+0  10306-2 0  9993", "line2": "2 31148  98.8650 244.1788 0136371  16.9789 343.5897 14.43428265976954"}}, "geometry": {"type": "Point", "coordinates": [-121.28324424354882, 40.40510704959323]}}]}